{
  "type": "FeatureCollection",
  "features": [
    {
      "type": "Feature",
      "properties": {
        "norad_id": 34022,
        "name": "COSMOS 2251 DEB",
        "group": "cosmos-2251-debris",
        "lat": -15.038736936547481,
        "lon": -109.569254343916,
        "alt_km": 751.486919116599,
        "timestamp": "2025-12-21T09:37:23.048371+00:00",
        "meta_object_name": "COSMOS 2251 DEB",
        "meta_object_id": "1993-036HH",
        "meta_epoch": "2025-12-21T03:43:12.132192",
        "meta_mean_motion": 14.38974611,
        "meta_eccentricity": 0.0022987,
        "meta_inclination": 74.054,
        "meta_ra_of_asc_node": 255.2894,
        "meta_arg_of_pericenter": 318.8847,
        "meta_mean_anomaly": 191.8248,
        "meta_ephemeris_type": 0,
        "meta_classification_type": "U",
        "meta_norad_cat_id": 34022,
        "meta_element_set_no": 999,
        "meta_rev_at_epoch": 88316,
        "meta_bstar": 0.00015421,
        "meta_mean_motion_dot": 4.51e-06,
        "meta_mean_motion_ddot": 0,
        "tle_line1": "1 34022U 93036HH  25355.15500153  .00000451  00000+0  15421-3 0  9997",
        "tle_line2": "2 34022  74.0540 255.2894 0022987 318.8847 191.8248 14.38974611883168"
      },
      "geometry": {
        "type": "Point",
        "coordinates": [
          -109.569254343916,
          -15.038736936547481
        ]
      }
    },
    {
      "type": "Feature",
      "properties": {
        "norad_id": 34023,
        "name": "COSMOS 2251 DEB",
        "group": "cosmos-2251-debris",
        "lat": -44.21353511495782,
        "lon": -140.46845644205968,
        "alt_km": 750.0755203478193,
        "timestamp": "2025-12-21T09:37:23.048381+00:00",
        "meta_object_name": "COSMOS 2251 DEB",
        "meta_object_id": "1993-036HJ",
        "meta_epoch": "2025-12-21T02:14:19.944096",
        "meta_mean_motion": 14.40576503,
        "meta_eccentricity": 0.0018782,
        "meta_inclination": 74.0244,
        "meta_ra_of_asc_node": 236.2841,
        "meta_arg_of_pericenter": 330.7165,
        "meta_mean_anomaly": 187.9479,
        "meta_ephemeris_type": 0,
        "meta_classification_type": "U",
        "meta_norad_cat_id": 34023,
        "meta_element_set_no": 999,
        "meta_rev_at_epoch": 88334,
        "meta_bstar": 0.00020253,
        "meta_mean_motion_dot": 6.2e-06,
        "meta_mean_motion_ddot": 0,
        "tle_line1": "1 34023U 93036HJ  25355.09328639  .00000620  00000+0  20253-3 0  9995",
        "tle_line2": "2 34023  74.0244 236.2841 0018782 330.7165 187.9479 14.40576503883348"
      },
      "geometry": {
        "type": "Point",
        "coordinates": [
          -140.46845644205968,
          -44.21353511495782
        ]
      }
    },
    {
      "type": "Feature",
      "properties": {
        "norad_id": 34024,
        "name": "COSMOS 2251 DEB",
        "group": "cosmos-2251-debris",
        "lat": 17.106550228995822,
        "lon": 115.06781699738822,
        "alt_km": 789.079238004193,
        "timestamp": "2025-12-21T09:37:23.048391+00:00",
        "meta_object_name": "COSMOS 2251 DEB",
        "meta_object_id": "1993-036HK",
        "meta_epoch": "2025-12-21T00:52:07.856256",
        "meta_mean_motion": 14.35404362,
        "meta_eccentricity": 0.0021423,
        "meta_inclination": 74.0467,
        "meta_ra_of_asc_node": 300.7867,
        "meta_arg_of_pericenter": 349.7357,
        "meta_mean_anomaly": 88.1945,
        "meta_ephemeris_type": 0,
        "meta_classification_type": "U",
        "meta_norad_cat_id": 34024,
        "meta_element_set_no": 999,
        "meta_rev_at_epoch": 88143,
        "meta_bstar": 0.0001242,
        "meta_mean_motion_dot": 3.31e-06,
        "meta_mean_motion_ddot": 0,
        "tle_line1": "1 34024U 93036HK  25355.03620204  .00000331  00000+0  12420-3 0  9999",
        "tle_line2": "2 34024  74.0467 300.7867 0021423 349.7357  88.1945 14.35404362881435"
      },
      "geometry": {
        "type": "Point",
        "coordinates": [
          115.06781699738822,
          17.106550228995822
        ]
      }
    },
    {
      "type": "Feature",
      "properties": {
        "norad_id": 34026,
        "name": "COSMOS 2251 DEB",
        "group": "cosmos-2251-debris",
        "lat": 23.487433290883562,
        "lon": -29.84436064780852,
        "alt_km": 1267.075821372604,
        "timestamp": "2025-12-21T09:37:23.048401+00:00",
        "meta_object_name": "COSMOS 2251 DEB",
        "meta_object_id": "1993-036HM",
        "meta_epoch": "2025-12-21T04:19:15.685824",
        "meta_mean_motion": 13.65318752,
        "meta_eccentricity": 0.0349862,
        "meta_inclination": 73.7669,
        "meta_ra_of_asc_node": 323.2498,
        "meta_arg_of_pericenter": 191.9789,
        "meta_mean_anomaly": 188.126,
        "meta_ephemeris_type": 0,
        "meta_classification_type": "U",
        "meta_norad_cat_id": 34026,
        "meta_element_set_no": 999,
        "meta_rev_at_epoch": 83647,
        "meta_bstar": 0.00033713,
        "meta_mean_motion_dot": 3.93e-06,
        "meta_mean_motion_ddot": 0,
        "tle_line1": "1 34026U 93036HM  25355.18004266  .00000393  00000+0  33713-3 0  9997",
        "tle_line2": "2 34026  73.7669 323.2498 0349862 191.9789 188.1260 13.65318752836477"
      },
      "geometry": {
        "type": "Point",
        "coordinates": [
          -29.84436064780852,
          23.487433290883562
        ]
      }
    },
    {
      "type": "Feature",
      "properties": {
        "norad_id": 34028,
        "name": "COSMOS 2251 DEB",
        "group": "cosmos-2251-debris",
        "lat": 73.5712071767732,
        "lon": 52.641236151819264,
        "alt_km": 794.6515647305077,
        "timestamp": "2025-12-21T09:37:23.048411+00:00",
        "meta_object_name": "COSMOS 2251 DEB",
        "meta_object_id": "1993-036HP",
        "meta_epoch": "2025-12-20T15:35:55.253184",
        "meta_mean_motion": 13.20628876,
        "meta_eccentricity": 0.0543534,
        "meta_inclination": 73.8835,
        "meta_ra_of_asc_node": 335.1228,
        "meta_arg_of_pericenter": 111.6096,
        "meta_mean_anomaly": 8.353,
        "meta_ephemeris_type": 0,
        "meta_classification_type": "U",
        "meta_norad_cat_id": 34028,
        "meta_element_set_no": 999,
        "meta_rev_at_epoch": 81112,
        "meta_bstar": 0.00045906,
        "meta_mean_motion_dot": 3.89e-06,
        "meta_mean_motion_ddot": 0,
        "tle_line1": "1 34028U 93036HP  25354.64994506  .00000389  00000+0  45906-3 0  9996",
        "tle_line2": "2 34028  73.8835 335.1228 0543534 111.6096   8.3530 13.20628876811120"
      },
      "geometry": {
        "type": "Point",
        "coordinates": [
          52.641236151819264,
          73.5712071767732
        ]
      }
    },
    {
      "type": "Feature",
      "properties": {
        "norad_id": 34031,
        "name": "COSMOS 2251 DEB",
        "group": "cosmos-2251-debris",
        "lat": 25.97684804406735,
        "lon": 127.19444381981302,
        "alt_km": 706.4334185244707,
        "timestamp": "2025-12-21T09:37:23.048422+00:00",
        "meta_object_name": "COSMOS 2251 DEB",
        "meta_object_id": "1993-036HS",
        "meta_epoch": "2025-12-21T02:04:08.016960",
        "meta_mean_motion": 14.59772675,
        "meta_eccentricity": 0.0022928,
        "meta_inclination": 74.0131,
        "meta_ra_of_asc_node": 119.7659,
        "meta_arg_of_pericenter": 239.7149,
        "meta_mean_anomaly": 293.9227,
        "meta_ephemeris_type": 0,
        "meta_classification_type": "U",
        "meta_norad_cat_id": 34031,
        "meta_element_set_no": 999,
        "meta_rev_at_epoch": 88687,
        "meta_bstar": 0.00082453,
        "meta_mean_motion_dot": 3.924e-05,
        "meta_mean_motion_ddot": 0,
        "tle_line1": "1 34031U 93036HS  25355.08620390  .00003924  00000+0  82453-3 0  9992",
        "tle_line2": "2 34031  74.0131 119.7659 0022928 239.7149 293.9227 14.59772675886879"
      },
      "geometry": {
        "type": "Point",
        "coordinates": [
          127.19444381981302,
          25.97684804406735
        ]
      }
    },
    {
      "type": "Feature",
      "properties": {
        "norad_id": 34035,
        "name": "COSMOS 2251 DEB",
        "group": "cosmos-2251-debris",
        "lat": -48.669504533783126,
        "lon": -46.10639681647627,
        "alt_km": 696.1484167658555,
        "timestamp": "2025-12-21T09:37:23.048431+00:00",
        "meta_object_name": "COSMOS 2251 DEB",
        "meta_object_id": "1993-036HW",
        "meta_epoch": "2025-12-20T16:27:56.877408",
        "meta_mean_motion": 14.52033624,
        "meta_eccentricity": 0.00451767,
        "meta_inclination": 74.0655,
        "meta_ra_of_asc_node": 334.1941,
        "meta_arg_of_pericenter": 334.1122,
        "meta_mean_anomaly": 199.4071,
        "meta_ephemeris_type": 0,
        "meta_classification_type": "U",
        "meta_norad_cat_id": 34035,
        "meta_element_set_no": 999,
        "meta_rev_at_epoch": 88081,
        "meta_bstar": 0.0010888868,
        "meta_mean_motion_dot": 4.435e-05,
        "meta_mean_motion_ddot": 0,
        "tle_line1": "1 34035U 93036HW  25354.68607497  .00004435  00000+0  10889-2 0  9995",
        "tle_line2": "2 34035  74.0655 334.1941 0045176 334.1122 199.4071 14.52033624880814"
      },
      "geometry": {
        "type": "Point",
        "coordinates": [
          -46.10639681647627,
          -48.669504533783126
        ]
      }
    }
  ]
}